start=new Date('2022-07-13T00:00:00.000Z').valueOf();
sats=[{"OBJECT_NAME":"STARLINK-2014","FILE":"3512432","MEAN_ELEMENT_THEORY":"SGP4","OBJECT_TYPE":"PAYLOAD","TLE_LINE1":"1 47637U 21012T   22193.73209673  .00002176  00000-0  16492-3 0  9998","EPHEMERIS_TYPE":"0","EPOCH":"2022-07-12T17:34:13.157472","PERIAPSIS":"546.132","MEAN_MOTION":"15.06398560","ELEMENT_SET_NO":"999","INCLINATION":"53.0537","CENTER_NAME":"EARTH","APOAPSIS":"548.304","REV_AT_EPOCH":"7891","DECAY_DATE":null,"GP_ID":"207998652","RCS_SIZE":"LARGE","BSTAR":"0.00016492000000","TIME_SYSTEM":"UTC","OBJECT_ID":"2021-012T","NORAD_CAT_ID":"47637","RA_OF_ASC_NODE":"288.9755","ECCENTRICITY":"0.00015680","MEAN_MOTION_DOT":"0.00002176","TLE_LINE2":"2 47637  53.0537 288.9755 0001568  67.8761 292.2394 15.06398560 78910","CLASSIFICATION_TYPE":"U","SEMIMAJOR_AXIS":"6925.353","LAUNCH_DATE":"2021-02-16","SITE":"AFETR","ARG_OF_PERICENTER":"67.8761","PERIOD":"95.592","MEAN_ANOMALY":"292.2394","COUNTRY_CODE":"US","MEAN_MOTION_DDOT":"0.0000000000000","REF_FRAME":"TEME"},{"RA_OF_ASC_NODE":"215.1591","MEAN_MOTION_DOT":"-0.00000635","ECCENTRICITY":"0.00014860","SEMIMAJOR_AXIS":"6925.364","CLASSIFICATION_TYPE":"U","TLE_LINE2":"2 47638  53.0523 215.1591 0001486  75.5017 284.6137 15.06395076 79892","LAUNCH_DATE":"2021-02-16","PERIOD":"95.592","ARG_OF_PERICENTER":"75.5017","SITE":"AFETR","COUNTRY_CODE":"US","MEAN_ANOMALY":"284.6137","MEAN_MOTION_DDOT":"0.0000000000000","REF_FRAME":"TEME","RCS_SIZE":"LARGE","BSTAR":"-0.00002376900000","TIME_SYSTEM":"UTC","NORAD_CAT_ID":"47638","OBJECT_ID":"2021-012U","CENTER_NAME":"EARTH","INCLINATION":"53.0523","APOAPSIS":"548.258","DECAY_DATE":null,"REV_AT_EPOCH":"7989","GP_ID":"207968943","MEAN_ELEMENT_THEORY":"SGP4","OBJECT_NAME":"STARLINK-2015","FILE":"3512184","EPOCH":"2022-07-12T11:08:45.459456","TLE_LINE1":"1 47638U 21012U   22193.46441504 -.00000635  00000-0 -23769-4 0  9996","OBJECT_TYPE":"PAYLOAD","EPHEMERIS_TYPE":"0","PERIAPSIS":"546.200","MEAN_MOTION":"15.06395076","ELEMENT_SET_NO":"999"},{"NORAD_CAT_ID":"47639","OBJECT_ID":"2021-012V","RCS_SIZE":"LARGE","BSTAR":"0.00114880000000","TIME_SYSTEM":"UTC","PERIOD":"95.590","SITE":"AFETR","ARG_OF_PERICENTER":"73.1160","COUNTRY_CODE":"US","MEAN_ANOMALY":"286.9998","MEAN_MOTION_DDOT":"0.0000000000000","REF_FRAME":"TEME","RA_OF_ASC_NODE":"288.7766","MEAN_MOTION_DOT":"0.00016884","ECCENTRICITY":"0.00015400","CLASSIFICATION_TYPE":"U","SEMIMAJOR_AXIS":"6925.266","TLE_LINE2":"2 47639  53.0546 288.7766 0001540  73.1160 286.9998 15.06427021 78897","LAUNCH_DATE":"2021-02-16","EPOCH":"2022-07-12T18:37:54.911136","EPHEMERIS_TYPE":"0","TLE_LINE1":"1 47639U 21012V   22193.77632999  .00016884  00000-0  11488-2 0  9995","OBJECT_TYPE":"PAYLOAD","PERIAPSIS":"546.064","MEAN_MOTION":"15.06427021","ELEMENT_SET_NO":"999","MEAN_ELEMENT_THEORY":"SGP4","FILE":"3512432","OBJECT_NAME":"STARLINK-2016","APOAPSIS":"548.197","DECAY_DATE":null,"REV_AT_EPOCH":"7889","GP_ID":"207998150","INCLINATION":"53.0546","CENTER_NAME":"EARTH"},{"APOAPSIS":"548.112","REV_AT_EPOCH":"7862","DECAY_DATE":null,"GP_ID":"207998400","CENTER_NAME":"EARTH","INCLINATION":"53.0549","EPHEMERIS_TYPE":"0","TLE_LINE1":"1 47640U 21012W   22193.70445873  .00009072  00000-0  62675-3 0  9999","OBJECT_TYPE":"PAYLOAD","EPOCH":"2022-07-12T16:54:25.234272","PERIAPSIS":"546.172","MEAN_MOTION":"15.06423314","ELEMENT_SET_NO":"999","FILE":"3512432","OBJECT_NAME":"STARLINK-2018","MEAN_ELEMENT_THEORY":"SGP4","ARG_OF_PERICENTER":"73.3068","SITE":"AFETR","PERIOD":"95.591","MEAN_ANOMALY":"286.8074","COUNTRY_CODE":"US","MEAN_MOTION_DDOT":"0.0000000000000","REF_FRAME":"TEME","RA_OF_ASC_NODE":"309.0863","ECCENTRICITY":"0.00014010","MEAN_MOTION_DOT":"0.00009072","TLE_LINE2":"2 47640  53.0549 309.0863 0001401  73.3068 286.8074 15.06423314 78628","CLASSIFICATION_TYPE":"U","SEMIMAJOR_AXIS":"6925.277","LAUNCH_DATE":"2021-02-16","OBJECT_ID":"2021-012W","NORAD_CAT_ID":"47640","RCS_SIZE":"LARGE","BSTAR":"0.00062675000000","TIME_SYSTEM":"UTC"},{"OBJECT_ID":"2021-012X","NORAD_CAT_ID":"47641","TIME_SYSTEM":"UTC","BSTAR":"0.00039618000000","RCS_SIZE":"LARGE","MEAN_MOTION_DDOT":"0.0000000000000","REF_FRAME":"TEME","MEAN_ANOMALY":"289.5429","COUNTRY_CODE":"US","SITE":"AFETR","ARG_OF_PERICENTER":"70.5717","PERIOD":"95.593","LAUNCH_DATE":"2021-02-16","TLE_LINE2":"2 47641  53.0527 214.6497 0001451  70.5717 289.5429 15.06391341 79915","SEMIMAJOR_AXIS":"6925.375","CLASSIFICATION_TYPE":"U","ECCENTRICITY":"0.00014510","MEAN_MOTION_DOT":"0.00005623","RA_OF_ASC_NODE":"214.6497","ELEMENT_SET_NO":"999","MEAN_MOTION":"15.06391341","PERIAPSIS":"546.235","OBJECT_TYPE":"PAYLOAD","TLE_LINE1":"1 47641U 21012X   22193.58238705  .00005623  00000-0  39618-3 0  9999","EPHEMERIS_TYPE":"0","EPOCH":"2022-07-12T13:58:38.241120","FILE":"3512432","OBJECT_NAME":"STARLINK-2019","MEAN_ELEMENT_THEORY":"SGP4","GP_ID":"207999152","REV_AT_EPOCH":"7991","DECAY_DATE":null,"APOAPSIS":"548.245","CENTER_NAME":"EARTH","INCLINATION":"53.0527"},{"MEAN_ELEMENT_THEORY":"SGP4","FILE":"3512432","OBJECT_NAME":"STARLINK-2020","MEAN_MOTION":"15.06422599","ELEMENT_SET_NO":"999","EPOCH":"2022-07-12T15:27:29.868480","EPHEMERIS_TYPE":"0","TLE_LINE1":"1 47642U 21012Y   22193.64409570  .00009756  00000-0  67253-3 0  9994","OBJECT_TYPE":"PAYLOAD","PERIAPSIS":"546.208","CENTER_NAME":"EARTH","INCLINATION":"53.0542","GP_ID":"207999386","APOAPSIS":"548.081","DECAY_DATE":null,"REV_AT_EPOCH":"7867","BSTAR":"0.00067253000000","TIME_SYSTEM":"UTC","RCS_SIZE":"LARGE","NORAD_CAT_ID":"47642","OBJECT_ID":"2021-012Y","CLASSIFICATION_TYPE":"U","SEMIMAJOR_AXIS":"6925.279","TLE_LINE2":"2 47642  53.0542 304.3505 0001352  87.2731 272.8413 15.06422599 78671","LAUNCH_DATE":"2021-02-16","RA_OF_ASC_NODE":"304.3505","MEAN_MOTION_DOT":"0.00009756","ECCENTRICITY":"0.00013520","MEAN_MOTION_DDOT":"0.0000000000000","REF_FRAME":"TEME","PERIOD":"95.591","SITE":"AFETR","ARG_OF_PERICENTER":"87.2731","COUNTRY_CODE":"US","MEAN_ANOMALY":"272.8413"},{"NORAD_CAT_ID":"47643","OBJECT_ID":"2021-012Z","BSTAR":"0.00045526000000","TIME_SYSTEM":"UTC","RCS_SIZE":"LARGE","MEAN_MOTION_DDOT":"0.0000000000000","REF_FRAME":"TEME","PERIOD":"95.592","ARG_OF_PERICENTER":"73.1185","SITE":"AFETR","COUNTRY_CODE":"US","MEAN_ANOMALY":"286.9986","SEMIMAJOR_AXIS":"6925.323","CLASSIFICATION_TYPE":"U","TLE_LINE2":"2 47643  53.0550 289.3087 0001665  73.1185 286.9986 15.06408335 78899","LAUNCH_DATE":"2021-02-16","RA_OF_ASC_NODE":"289.3087","MEAN_MOTION_DOT":"0.00006507","ECCENTRICITY":"0.00016650","MEAN_MOTION":"15.06408335","ELEMENT_SET_NO":"999","EPOCH":"2022-07-12T15:48:04.987584","OBJECT_TYPE":"PAYLOAD","TLE_LINE1":"1 47643U 21012Z   22193.65839106  .00006507  00000-0  45526-3 0  9998","EPHEMERIS_TYPE":"0","PERIAPSIS":"546.035","MEAN_ELEMENT_THEORY":"SGP4","FILE":"3512432","OBJECT_NAME":"STARLINK-2022","GP_ID":"207997652","APOAPSIS":"548.341","DECAY_DATE":null,"REV_AT_EPOCH":"7889","CENTER_NAME":"EARTH","INCLINATION":"53.0550"},{"INCLINATION":"53.0555","CENTER_NAME":"EARTH","REV_AT_EPOCH":"7864","DECAY_DATE":null,"APOAPSIS":"548.265","GP_ID":"207997902","FILE":"3512432","OBJECT_NAME":"STARLINK-2026","MEAN_ELEMENT_THEORY":"SGP4","PERIAPSIS":"546.167","TLE_LINE1":"1 47644U 21012AA  22193.80397748  .00002591  00000-0  19276-3 0  9999","EPHEMERIS_TYPE":"0","OBJECT_TYPE":"PAYLOAD","EPOCH":"2022-07-12T19:17:43.654272","ELEMENT_SET_NO":"999","MEAN_MOTION":"15.06399138","ECCENTRICITY":"0.00015150","MEAN_MOTION_DOT":"0.00002591","RA_OF_ASC_NODE":"308.6491","LAUNCH_DATE":"2021-02-16","TLE_LINE2":"2 47644  53.0555 308.6491 0001515  79.2943 280.8216 15.06399138 78644","SEMIMAJOR_AXIS":"6925.351","CLASSIFICATION_TYPE":"U","MEAN_ANOMALY":"280.8216","COUNTRY_CODE":"US","ARG_OF_PERICENTER":"79.2943","SITE":"AFETR","PERIOD":"95.592","MEAN_MOTION_DDOT":"0.0000000000000","REF_FRAME":"TEME","RCS_SIZE":"LARGE","TIME_SYSTEM":"UTC","BSTAR":"0.00019276000000","OBJECT_ID":"2021-012AA","NORAD_CAT_ID":"47644"},{"OBJECT_NAME":"STARLINK-2027","FILE":"3512432","MEAN_ELEMENT_THEORY":"SGP4","MEAN_MOTION":"15.06437435","ELEMENT_SET_NO":"999","TLE_LINE1":"1 47645U 21012AB  22193.75885949  .00020390  00000-0  13824-2 0  9998","OBJECT_TYPE":"PAYLOAD","EPHEMERIS_TYPE":"0","EPOCH":"2022-07-12T18:12:45.459936","PERIAPSIS":"546.215","CENTER_NAME":"EARTH","INCLINATION":"53.0546","GP_ID":"207998653","APOAPSIS":"547.982","REV_AT_EPOCH":"7902","DECAY_DATE":null,"BSTAR":"0.00138240000000","TIME_SYSTEM":"UTC","RCS_SIZE":"LARGE","OBJECT_ID":"2021-012AB","NORAD_CAT_ID":"47645","TLE_LINE2":"2 47645  53.0546 279.0866 0001276  79.5149 280.5984 15.06437435 79022","SEMIMAJOR_AXIS":"6925.234","CLASSIFICATION_TYPE":"U","LAUNCH_DATE":"2021-02-16","RA_OF_ASC_NODE":"279.0866","ECCENTRICITY":"0.00012760","MEAN_MOTION_DOT":"0.00020390","MEAN_MOTION_DDOT":"0.0000000000000","REF_FRAME":"TEME","ARG_OF_PERICENTER":"79.5149","SITE":"AFETR","PERIOD":"95.590","MEAN_ANOMALY":"280.5984","COUNTRY_CODE":"US"},{"EPOCH":"2022-07-13T03:26:45.335328","TLE_LINE1":"1 47646U 21012AC  22194.14358027  .00006153  00000-0  43138-3 0  9998","EPHEMERIS_TYPE":"0","OBJECT_TYPE":"PAYLOAD","PERIAPSIS":"545.618","MEAN_MOTION":"15.06422980","ELEMENT_SET_NO":"999","MEAN_ELEMENT_THEORY":"SGP4","FILE":"3512460","OBJECT_NAME":"STARLINK-2028","APOAPSIS":"548.668","DECAY_DATE":null,"REV_AT_EPOCH":"7907","GP_ID":"208002673","INCLINATION":"53.0526","CENTER_NAME":"EARTH","NORAD_CAT_ID":"47646","OBJECT_ID":"2021-012AC","RCS_SIZE":"LARGE","BSTAR":"0.00043138000000","TIME_SYSTEM":"UTC","PERIOD":"95.591","SITE":"AFETR","ARG_OF_PERICENTER":"61.9201","COUNTRY_CODE":"US","MEAN_ANOMALY":"298.2010","MEAN_MOTION_DDOT":"0.0000000000000","REF_FRAME":"TEME","RA_OF_ASC_NODE":"242.3637","MEAN_MOTION_DOT":"0.00006153","ECCENTRICITY":"0.00022020","SEMIMAJOR_AXIS":"6925.278","CLASSIFICATION_TYPE":"U","TLE_LINE2":"2 47646  53.0526 242.3637 0002202  61.9201 298.2010 15.06422980 79074","LAUNCH_DATE":"2021-02-16"}];
